[
    {
        "CCSDS_OMM_VERS": "3.0",
        "COMMENT": "GENERATED VIA SPACE-TRACK.ORG API",
        "CREATION_DATE": "2025-05-04T06:26:21",
        "ORIGINATOR": "18 SPCS",
        "OBJECT_NAME": "COSMOS 2516 (GLONASS)",
        "OBJECT_ID": "2016-032A",
        "CENTER_NAME": "EARTH",
        "REF_FRAME": "TEME",
        "TIME_SYSTEM": "UTC",
        "MEAN_ELEMENT_THEORY": "SGP4",
        "EPOCH": "2025-05-03T17:16:00.517152",
        "MEAN_MOTION": "2.13106533",
        "ECCENTRICITY": "0.00166570",
        "INCLINATION": "63.8411",
        "RA_OF_ASC_NODE": "205.1224",
        "ARG_OF_PERICENTER": "211.5754",
        "MEAN_ANOMALY": "148.3745",
        "EPHEMERIS_TYPE": "0",
        "CLASSIFICATION_TYPE": "U",
        "NORAD_CAT_ID": "41554",
        "ELEMENT_SET_NO": "999",
        "REV_AT_EPOCH": "6950",
        "BSTAR": "0.00000000000000",
        "MEAN_MOTION_DOT": "-0.00000018",
        "MEAN_MOTION_DDOT": "0.0000000000000",
        "SEMIMAJOR_AXIS": "25507.663",
        "PERIOD": "675.718",
        "APOAPSIS": "19172.016",
        "PERIAPSIS": "19087.040",
        "OBJECT_TYPE": "PAYLOAD",
        "RCS_SIZE": "LARGE",
        "COUNTRY_CODE": "CIS",
        "LAUNCH_DATE": "2016-05-29",
        "SITE": "PKMTR",
        "DECAY_DATE": null,
        "FILE": "4718349",
        "GP_ID": "286813616",
        "TLE_LINE0": "0 COSMOS 2516 (GLONASS)",
        "TLE_LINE1": "1 41554U 16032A   25123.71945043 -.00000018  00000-0  00000+0 0  9996",
        "TLE_LINE2": "2 41554  63.8411 205.1224 0016657 211.5754 148.3745  2.13106533 69506"
    }
]